CSS (TIANHE)            
1 48274U 21035A   24279.50619042  .00046896  00000+0  48398-3 0  9994
2 48274  41.4655 130.3339 0002888 124.0659 236.0455 15.63961734196351
